COSMOS 2503             
1 40420U 15009A   26068.69626972  .00002817  00000+0  19590-3 0  9998
2 40420  97.8437 123.7175 0015321 225.7450 134.2520 15.06275973603958
STARLINK-5415           
1 54796U 22175AQ  26068.29605940 -.00001303  00000+0 -63804-4 0  9998
2 54796  53.2182  30.6354 0001391  84.3442 275.7709 15.08836405180077
